GLOBALSTAR M069         
1 31573U 07020C   26178.83675058 -.00000056  00000+0  33667-3 0  9993
2 31573  52.0005 221.9843 0002089 171.5935   0.1680 12.23471622880104
GLOBALSTAR M072         
1 31574U 07020D   26178.94423513 -.00000083  00000+0  10356-4 0  9994
2 31574  51.9937  71.6074 0001524 358.8133  13.9742 11.91658425876261
GLOBALSTAR M066         
1 32265U 07048C   26178.98552939 -.00000097  00000+0 -24913-4 0  9991
2 32265  51.9599  26.9136 0005642  67.0162  99.5220 12.30387123861556
GLOBALSTAR M079         
1 37188U 10054A   26178.97402337 -.00000098  00000+0  32423-4 0  9991
2 37188  52.0045  75.8334 0000938  47.4717 326.1835 12.62266272723911
GLOBALSTAR M074         
1 37189U 10054B   26178.85538712 -.00000108  00000+0 -24686-4 0  9991
2 37189  52.0018  75.4576 0000741  69.7023   4.8361 12.62261694724508
GLOBALSTAR M076         
1 37190U 10054C   26178.88272207 -.00000109  00000+0 -30962-4 0  9995
2 37190  52.0031  75.5785 0000956  63.3186  15.3932 12.62261887724220
GLOBALSTAR M077         
1 37191U 10054D   26178.67890959 -.00000075  00000+0  60666-4 0  9998
2 37191  51.9928 152.6651 0002560 191.8119 339.4545 11.67548011722363
GLOBALSTAR M075         
1 37192U 10054E   26178.80417287 -.00000115  00000+0 -62954-4 0  9991
2 37192  51.9940 117.8658 0000415  37.2520 344.4845 12.62267415723287
GLOBALSTAR M073         
1 37193U 10054F   26178.99053839 -.00000084  00000+0  10800-3 0  9997
2 37193  52.0076  31.4076 0001077  68.7612  78.6881 12.62266698725292
GLOBALSTAR M083         
1 37739U 11033A   26178.84502322 -.00000082  00000+0  12430-3 0  9990
2 37739  51.9881 340.0643 0000958  83.8546  63.4168 12.62263645694294
GLOBALSTAR M088         
1 37740U 11033B   26178.90350720 -.00000077  00000+0  14772-3 0  9997
2 37740  52.0201 246.3418 0000462 142.4602  29.1794 12.62268997689841
GLOBALSTAR M091         
1 37741U 11033C   26178.83727389 -.00000076  00000+0  15323-3 0  9991
2 37741  51.9969 209.4921 0000037 191.2708 340.0901 12.62264139690624
GLOBALSTAR M085         
1 37742U 11033D   26178.86684322 -.00000105  00000+0 -49495-5 0  9997
2 37742  52.0101 160.7020 0000364 359.5037   6.3533 12.62264182691140
GLOBALSTAR M081         
1 37743U 11033E   26178.97496611 -.00000101  00000+0  14818-4 0  9997
2 37743  51.9932 162.7969 0000261  35.2978 341.8429 12.62265267691307
GLOBALSTAR M089         
1 37744U 11033F   26178.85984619 -.00000116  00000+0 -70650-4 0  9998
2 37744  51.9921 117.3040 0000508  78.7045 316.0201 12.62267389692134
GLOBALSTAR M084         
1 38040U 11080A   26178.90137683 -.00000097  00000+0  37926-4 0  9993
2 38040  52.0027 344.6644 0001095 103.1353  60.3254 12.62267645670111
GLOBALSTAR M080         
1 38041U 11080B   26178.87305832 -.00000085  00000+0  10401-3 0  9998
2 38041  52.0084 346.4726 0000421  77.6229  87.1995 12.62269782670231
GLOBALSTAR M082         
1 38042U 11080C   26178.61754323 -.00000104  00000+0 -13620-5 0  9995
2 38042  52.0088 302.7529 0000472 106.4901 266.4783 12.62263704670916
GLOBALSTAR M092         
1 38043U 11080D   26178.90822557 -.00000087  00000+0  92199-4 0  9999
2 38043  52.0098  32.2652 0000828  78.9184 294.7404 12.62267159669405
GLOBALSTAR M090         
1 38044U 11080E   26178.83862918 -.00000103  00000+0  65981-5 0  9996
2 38044  52.0135 296.0393 0000616  97.8102  79.4680 12.62253284671057
GLOBALSTAR M086         
1 38045U 11080F   26178.52244309 -.00000080  00000+0  13423-3 0  9997
2 38045  51.9909 296.9143 0001684  84.9838 356.5373 12.62287246670968
GLOBALSTAR M097         
1 39072U 13005A   26178.77361488 -.00000077  00000+0  14955-3 0  9999
2 39072  52.0016 211.1112 0000131  88.1046 271.9835 12.62271218618246
GLOBALSTAR M093         
1 39073U 13005B   26178.74677265 -.00000080  00000+0  13142-3 0  9991
2 39073  52.0075 204.5425 0000242  38.5841 321.5043 12.62266102618193
GLOBALSTAR M094         
1 39074U 13005C   26178.82582482 -.00000125  00000+0 -11971-3 0  9996
2 39074  51.9947 118.4068 0000674  30.0593 330.0313 12.62268474619815
GLOBALSTAR M096         
1 39075U 13005D   26178.91851590 -.00000105  00000+0 -59030-5 0  9994
2 39075  52.0044 166.9349 0000297   2.8635 357.2234 12.62265670618740
GLOBALSTAR M078         
1 39076U 13005E   26178.89158251  .00000030  00000+0  74533-3 0  9994
2 39076  51.9864 251.0137 0000522 275.6692  84.4115 12.62260039617362
GLOBALSTAR M095         
1 39077U 13005F   26178.91830094 -.00000073  00000+0  17105-3 0  9990
2 39077  52.0070 248.5515 0000044  65.2979 294.7892 12.62263662617223
GLOBALSTAR M087         
1 52888U 22064A   26178.77312175 -.00000090  00000+0  75398-4 0  9997
2 52888  52.0010  30.2244 0000893  59.8444 300.2511 12.62269280192473
